satname,norad_id,inclination_deg,eccentricity,mean_motion_rev_per_day,perigee_km,apogee_km,l1,l2
STARLINK-1337,45582,53.0528,0.0001625,15.06408331,546.0606597493161,548.3113897323565,1 45582U 20025BD  25329.78634764  .00003895  00000+0  28019-3 0  9996,2 45582  53.0528 183.0617 0001625  83.8121 276.3053 15.06408331309843
STARLINK-1347,45586,53.0519,0.0010172,15.35334574,452.9712198623929,466.88257705741944,1 45586U 20025BH  25329.80641422  .00065447  00000+0  18719-2 0  9998,2 45586  53.0519 163.6585 0010172 107.4965 252.7149 15.35334574310116
STARLINK-1360,45588,53.0411,0.0002558,15.82660588,321.2059342301245,324.63419502438774,1 45588U 20025BK  25329.91670139  .00165254  00000+0  75904-3 0  9996,2 45588  53.0411  73.4116 0002558 316.3370 118.7159 15.82660588  6042
STARLINK-1364,45589,53.0518,0.0001476,15.06401974,546.1833273650236,548.227688473361,1 45589U 20025BL  25329.85637515  .00002511  00000+0  18739-3 0  9990,2 45589  53.0518 182.7482 0001476  96.0996 264.0161 15.06401974309856
STARLINK-1365,45590,53.0538,0.0001707,15.06396376,546.0405061037782,548.4048238934083,1 45590U 20025BM  25329.40761436  .00001440  00000+0  11554-3 0  9991,2 45590  53.0538 214.7569 0001707  92.8360 267.2825 15.06396376309387
STARLINK-1443,45660,53.0517,0.0001616,15.06415591,546.0446455758147,548.2829027860289,1 45660U 20035D   25329.85729258  .00005075  00000+0  35921-3 0  9997,2 45660  53.0517 172.7418 0001616  84.4809 275.6364 15.06415591303085
STARLINK-1446,45663,53.0261,0.0001079,15.3616933,456.7119069513428,458.1870265108637,1 45663U 20035G   25329.72092397  .00042522  00000+0  11932-2 0  9996,2 45663  53.0261 131.1468 0001079 161.9599 198.1441 15.36169330303656
STARLINK-1448,45665,53.0537,0.0001822,15.06408101,545.9249356677592,548.4485236348446,1 45665U 20035J   25329.86097264  .00002109  00000+0  16039-3 0  9992,2 45665  53.0537 172.7217 0001822  95.0395 265.0802 15.06408101303074
STARLINK-1451,45668,53.0522,0.0001461,15.06406743,546.1791012865597,548.202682096513,1 45668U 20035M   25329.73200683  .00002418  00000+0  18111-3 0  9998,2 45668  53.0522 173.6201 0001461  89.3218 270.7938 15.06406743303065
STARLINK-1452,45669,53.0367,0.0012312,15.29148376,469.9151132953357,486.7985436986273,1 45669U 20035N   25329.74493611  .00060689  00000+0  21073-2 0  9999,2 45669  53.0367 150.6901 0012312 107.6917 252.5426 15.29148376303387
STARLINK-1453,45670,53.0551,0.0002221,15.14141781,522.0523975556462,525.1181425880113,1 45670U 20035P   25329.91670139 -.01653778  00000+0 -99193-1 0  9999,2 45670  53.0551 142.1974 0002221  44.2557 326.7557 15.14141781  5840
STARLINK-1454,45671,53.0531,0.0001607,15.06403061,546.0892744243756,548.3150784356794,1 45671U 20035Q   25329.82043521  .00001289  00000+0  10541-3 0  9992,2 45671  53.0531 172.9093 0001607  95.7736 264.3436 15.06403061303060
STARLINK-1456,45673,53.053,0.0001359,15.06399108,546.2731365506006,548.1554470317096,1 45673U 20035S   25329.83517470  .00001113  00000+0  93594-4 0  9990,2 45673  53.0530 172.8420 0001359  84.7000 275.4144 15.06399108303087
STARLINK-1457,45674,53.0527,0.000138,15.43844416,433.83546283838496,435.7158267283439,1 45674U 20035T   25329.83450880  .00110746  00000+0  23791-2 0  9995,2 45674  53.0527 168.5377 0001380 136.4225 223.6889 15.43844416303118
STARLINK-1458,45675,53.0528,0.0001605,15.06406805,546.0791865757719,548.3022167680092,1 45675U 20035U   25329.83149157  .00002849  00000+0  21007-3 0  9991,2 45675  53.0528 172.8559 0001605  92.0587 268.0586 15.06406805303042
STARLINK-1460,45676,53.0526,0.0001547,15.06409988,546.1095996396552,548.2522930122477,1 45676U 20035V   25329.73565616  .00003163  00000+0  23111-3 0  9991,2 45676  53.0526 173.2861 0001547  87.5233 272.5933 15.06409988303023
STARLINK-1392,45677,53.0522,0.0001557,15.06415628,546.0853914703248,548.2419300960937,1 45677U 20035W   25329.81307229  .00005168  00000+0  36543-3 0  9995,2 45677  53.0522 172.9417 0001557  89.1413 270.9754 15.06415628303078
STARLINK-1394,45679,53.052,0.0001495,15.06408164,546.1512006983958,548.2218724358299,1 45679U 20035Y   25329.81029645  .00003023  00000+0  22168-3 0  9996,2 45679  53.0520 162.9504 0001495  94.1047 266.0113 15.06408164303212
STARLINK-1402,45685,53.0532,0.0004405,15.29403021,474.5757880917945,480.6156886342924,1 45685U 20035AE  25329.78370818  .00058556  00000+0  20221-2 0  9998,2 45685  53.0532 151.9867 0004405 164.7999 195.3133 15.29403021303371
STARLINK-1404,45686,53.0529,0.0001538,15.06410018,546.1157404952864,548.2459682672952,1 45686U 20035AF  25329.83609426  .00002374  00000+0  17820-3 0  9994,2 45686  53.0529 162.8386 0001538  93.3357 266.7808 15.06410018303229
STARLINK-1413,45689,53.0528,0.0001513,15.06404315,546.1505298804186,548.2461363522198,1 45689U 20035AJ  25329.78818082  .00001680  00000+0  13165-3 0  9998,2 45689  53.0528 163.0487 0001513  94.7269 265.3892 15.06404315303126
STARLINK-1417,45693,53.0513,0.000167,15.06743758,545.0018321934431,547.3145467867334,1 45693U 20035AN  25329.78352929  .00019762  00000+0  13295-2 0  9999,2 45693  53.0513 163.0633 0001670 116.3352 243.7808 15.06743758303209
STARLINK-1420,45695,53.0537,0.0001466,15.06405026,546.1809001746051,548.2114078553623,1 45695U 20035AQ  25329.78539091  .00001803  00000+0  13991-3 0  9999,2 45695  53.0537 143.0525 0001466  93.4372 266.6785 15.06405026303497
STARLINK-1422,45696,53.0522,0.0001606,15.0640402,546.0870282449605,548.3114462443637,1 45696U 20035AR  25329.72920674  .00002859  00000+0  21075-3 0  9999,2 45696  53.0522 163.3171 0001606  97.7290 262.3881 15.06404020303196
STARLINK-1351,45697,53.0535,0.0001423,15.06404373,546.2126801629202,548.1836305481356,1 45697U 20035AS  25329.77159000  .00001203  00000+0  99644-4 0  9992,2 45697  53.0535 143.1263 0001423  90.3162 269.7990 15.06404373303499
STARLINK-1398,45699,53.048,0.000288,15.55800147,397.87564386996564,401.7797515358425,1 45699U 20035AU  25329.66276653  .00056330  00000+0  80248-3 0  9996,2 45699  53.0480  94.7879 0002880 194.5137 165.5792 15.55800147304162
STARLINK-1400,45700,53.0521,0.000146,15.06404897,546.1854506810241,548.2076480774422,1 45700U 20035AV  25329.81213785  .00003180  00000+0  23228-3 0  9993,2 45700  53.0521 142.9422 0001460  94.0637 266.0519 15.06404897303490
STARLINK-1403,45701,53.0527,0.0001579,15.06409198,546.0898594504379,548.2768756225069,1 45701U 20035AW  25329.77527997  .00001607  00000+0  12675-3 0  9998,2 45701  53.0527 143.1098 0001579  92.3402 267.7768 15.06409198303483
STARLINK-1407,45703,53.0408,0.0010611,15.442263,426.42439587453646,440.8803753086386,1 45703U 20035AY  25329.61984440  .00028994  00000+0  62698-3 0  9991,2 45703  53.0408  95.8962 0010611 137.5830 222.5997 15.44226300304141
STARLINK-1411,45706,53.051,6.87e-05,15.4415648,433.3897328824787,434.3257009565832,1 45706U 20035BB  25329.69943874  .00052038  00000+0  11194-2 0  9998,2 45706  53.0510 122.7507 0000687 252.5853 107.5078 15.44156480303768
STARLINK-1423,45710,53.0531,0.000144,15.0640096,546.2113659094475,548.2058654467619,1 45710U 20035BF  25329.80108183  .00001570  00000+0  12429-3 0  9990,2 45710  53.0531 142.9936 0001440  94.1041 266.0112 15.06400960303496
STARLINK-1433,45711,53.0527,0.0001483,15.06406042,546.166013695426,548.2200665853316,1 45711U 20035BG  25329.78265084  .00002194  00000+0  16611-3 0  9992,2 45711  53.0527 143.0740 0001483  90.9060 269.2099 15.06406042303484
STARLINK-1434,45712,53.0485,0.0006744,15.1711503,509.91653259537634,519.2134090135978,1 45712U 20035BH  25329.77908350  .00042254  00000+0  21080-2 0  9998,2 45712  53.0485 137.4996 0006744 140.9818 219.1663 15.17115030303577
STARLINK-1465,45731,53.0558,0.0001242,15.06394424,546.368517214466,548.0887780413359,1 45731U 20038B   25329.74947633  .00001844  00000+0  14270-3 0  9990,2 45731  53.0558 343.2233 0001242  89.6928 270.4203 15.06394424300525
STARLINK-1471,45735,53.0511,0.0001565,15.42236481,438.4432867697087,440.57721035850864,1 45735U 20038F   25329.57890425  .00024490  00000+0  56892-3 0  9999,2 45735  53.0511 278.0376 0001565  78.7589 281.3592 15.42236481301432
STARLINK-1474,45738,53.0342,0.0004159,15.71808187,350.9294393164837,356.529005640341,1 45738U 20038J   25329.11056497  .00102246  00000+0  76774-3 0  9992,2 45738  53.0342 232.6081 0004159  86.1294 274.0199 15.71808187302022
STARLINK-1475,45739,53.0406,0.0003548,15.94673095,286.85984739849573,291.5910077771123,1 45739U 20038K   25329.91670139  .00395214  72911-4  10180-2 0  9998,2 45739  53.0406 192.1689 0003548 146.7438 113.2272 15.94673095  6044
STARLINK-1480,45741,53.0561,0.0001484,15.06390086,546.2142168518885,548.2696693221978,1 45741U 20038M   25329.33297349  .00000662  00000+0  63365-4 0  9995,2 45741  53.0561 345.0934 0001484  89.9734 270.1425 15.06390086300471
STARLINK-1500,45744,53.0391,0.0001641,15.28925832,477.8968874367192,480.1474070688473,1 45744U 20038Q   25329.67670405  .00024237  00000+0  86068-3 0  9991,2 45744  53.0391 318.4463 0001641 349.9816  10.1149 15.28925832300877
STARLINK-1504,45746,53.028,0.0002896,15.42863977,435.6877375965569,439.63544814154557,1 45746U 20038S   25329.59681419  .00049736  00000+0  11181-2 0  9995,2 45746  53.0280 281.0143 0002896  36.6320 323.4882 15.42863977301387
STARLINK-1506,45747,53.0658,0.0002651,15.22220227,497.3220896551329,500.96842470789034,1 45747U 20038T   25329.28012548  .00010137  00000+0  44910-3 0  9993,2 45747  53.0658 323.9808 0002651 346.3840  13.7084 15.22220227300765
STARLINK-1464,45751,53.0548,0.0001325,15.0640648,546.2740916903103,548.1093037952123,1 45751U 20038X   25329.40117087  .00001912  00000+0  14722-3 0  9995,2 45751  53.0548 324.7884 0001325  88.3665 271.7476 15.06406480300766
STARLINK-1477,45754,53.0543,0.0004519,15.08082794,538.9315966424138,545.1860696364056,1 45754U 20038AA  25329.39894034  .00034540  00000+0  22225-2 0  9999,2 45754  53.0543 324.6173 0004519  47.5186 312.6185 15.08082794300769
